IRIDIUM 106             
1 41917U 17003A   26201.09599831  .00000071  00000+0  18178-4 0  9994
2 41917  86.3936  74.7947 0002343  93.6091 266.5373 14.34217968497925
IRIDIUM 103             
1 41918U 17003B   26201.08331231  .00000004  00000+0 -55484-5 0  9991
2 41918  86.3934  74.6995 0001870  85.7839 274.3571 14.34217539497945
IRIDIUM 109             
1 41919U 17003C   26201.08965548 -.00000068  00000+0 -31386-4 0  9991
2 41919  86.3938  74.7566 0002024  85.6605 274.4822 14.34217065497918
IRIDIUM 102             
1 41920U 17003D   26201.12771069  .00000107  00000+0  31133-4 0  9993
2 41920  86.3935  74.6638 0002246  83.7604 276.3848 14.34217622498009
IRIDIUM 105             
1 41921U 17003E   26201.08630719  .00000138  00000+0  42184-4 0  9997
2 41921  86.3942  43.1087 0002061  81.7217 278.4213 14.34218072499853
IRIDIUM 104             
1 41922U 17003F   26201.14039582  .00000137  00000+0  41972-4 0  9999
2 41922  86.3936  74.7017 0001930  80.4258 279.7156 14.34218028497999
IRIDIUM 114             
1 41923U 17003G   26201.14673871  .00000106  00000+0  30667-4 0  9990
2 41923  86.3937  74.6823 0002031  85.5932 274.5496 14.34218340497978
IRIDIUM 108             
1 41924U 17003H   26201.10526022  .00000022  00000+0  89209-6 0  9997
2 41924  86.3931  42.9887 0002105  85.5232 274.6204 14.34217539499829
IRIDIUM 112             
1 41925U 17003J   26201.13405377  .00000119  00000+0  35412-4 0  9992
2 41925  86.3933  74.5280 0002143  83.7506 276.3934 14.34217902497995
IRIDIUM 111             
1 41926U 17003K   26201.12136835 -.00000004  00000+0 -85221-5 0  9991
2 41926  86.3932  74.6044 0002055  86.2390 273.9041 14.34217473497978
IRIDIUM 113             
1 42803U 17039A   26201.24086999  .00000058  00000+0  13728-4 0  9992
2 42803  86.3992 308.3647 0002124  92.8099 267.3340 14.34217779475920
IRIDIUM 123             
1 42804U 17039B   26200.93350650  .00000004  00000+0 -56206-5 0  9997
2 42804  86.3992 339.9493 0002065  97.4603 262.6828 14.34217203474645
IRIDIUM 120             
1 42805U 17039C   26201.23452833  .00000041  00000+0  75388-5 0  9990
2 42805  86.3981 308.1452 0002390  98.3216 261.8251 14.34217600475911
IRIDIUM 115             
1 42806U 17039D   26201.25873237  .00000210  00000+0  56455-4 0  9999
2 42806  86.4517 308.2686 0002319  99.3757 260.7706 14.43279420479038
IRIDIUM 118             
1 42807U 17039E   26201.10475591  .00000136  00000+0  41326-4 0  9993
2 42807  86.3999 339.8753 0002219  92.4539 267.6911 14.34218547474669
IRIDIUM 117             
1 42808U 17039F   26200.91447789  .00000083  00000+0  22431-4 0  9997
2 42808  86.3997 339.9122 0002161  94.5849 265.5594 14.34217869474662
IRIDIUM 126             
1 42809U 17039G   26200.87008026  .00000058  00000+0  13667-4 0  9993
2 42809  86.3998 339.9825 0002074  93.1561 266.9872 14.34217875474631
IRIDIUM 124             
1 42810U 17039H   26201.19251636  .00000149  00000+0  38429-4 0  9992
2 42810  86.4477 276.5592 0002259  96.8623 263.2835 14.43275430479878
IRIDIUM 128             
1 42811U 17039J   26201.00035837  .00000127  00000+0  38447-4 0  9992
2 42811  86.3971  11.4274 0002297  93.5480 266.5979 14.34218112474680
IRIDIUM 121             
1 42812U 17039K   26200.88910851  .00000033  00000+0  46960-5 0  9992
2 42812  86.3999 340.0025 0002249  93.2688 266.8765 14.34217667474512
IRIDIUM 133             
1 42955U 17061A   26201.17160548  .00000136  00000+0  41520-4 0  9998
2 42955  86.3972  11.4743 0002214  91.6278 268.5172 14.34218439459507
IRIDIUM 100             
1 42956U 17061B   26200.95595862  .00000116  00000+0  34381-4 0  9990
2 42956  86.3970  11.4823 0002219  90.6706 269.4744 14.34218367459476
IRIDIUM 122             
1 42957U 17061C   26200.99401295  .00000121  00000+0  36321-4 0  9993
2 42957  86.3971  11.4668 0002112  91.8626 268.2812 14.34216904459480
IRIDIUM 129             
1 42958U 17061D   26201.22869167  .00000125  00000+0  37750-4 0  9998
2 42958  86.3972  11.4360 0002075  86.0306 274.1127 14.34216312459534
IRIDIUM 119             
1 42959U 17061E   26201.19697850  .00000131  00000+0  39870-4 0  9995
2 42959  86.3973  11.4451 0002106  91.8418 268.3019 14.34218002459544
IRIDIUM 107             
1 42960U 17061F   26201.21600423  .00000010  00000+0 -35433-5 0  9999
2 42960  86.3968  11.4590 0002059  97.6422 262.5007 14.34217234459550
IRIDIUM 132             
1 42961U 17061G   26201.01304265  .00000119  00000+0  35593-4 0  9998
2 42961  86.3972  11.5228 0002182  91.5396 268.6050 14.34217840459520
IRIDIUM 136             
1 42962U 17061H   26200.97498626  .00000119  00000+0  35477-4 0  9999
2 42962  86.3972  11.5456 0002248  90.6283 269.5170 14.34218382459538
IRIDIUM 139             
1 42963U 17061J   26201.19063540  .00000135  00000+0  41121-4 0  9999
2 42963  86.3974  11.5178 0002269  92.2787 267.8669 14.34218423459576
IRIDIUM 125             
1 42964U 17061K   26201.17794861  .00000133  00000+0  40287-4 0  9995
2 42964  86.3975  11.5848 0001723  98.2506 261.8886 14.34218714459580
