OBJECT_NAME,OBJECT_ID,EPOCH,MEAN_MOTION,ECCENTRICITY,INCLINATION,RA_OF_ASC_NODE,ARG_OF_PERICENTER,MEAN_ANOMALY,EPHEMERIS_TYPE,CLASSIFICATION_TYPE,NORAD_CAT_ID,ELEMENT_SET_NO,REV_AT_EPOCH,BSTAR,MEAN_MOTION_DOT,MEAN_MOTION_DDOT
IRIDIUM 106,2017-003A,2026-07-20T02:18:14.253984,14.34217968,.0002343,86.3936,74.7947,93.6091,266.5373,0,U,41917,999,49792,.1817753E-4,.71E-6,0
IRIDIUM 103,2017-003B,2026-07-20T01:59:58.183584,14.34217539,.00018705,86.3934,74.6995,85.7839,274.3571,0,U,41918,999,49794,-.5548433E-5,.4E-7,0
IRIDIUM 109,2017-003C,2026-07-20T02:09:06.233472,14.34217065,.0002024,86.3938,74.7566,85.6605,274.4822,0,U,41919,999,49791,-.31386226E-4,-.68E-6,0
IRIDIUM 102,2017-003D,2026-07-20T03:03:54.203616,14.34217622,.00022461,86.3935,74.6638,83.7604,276.3848,0,U,41920,999,49800,.31132867E-4,.107E-5,0
IRIDIUM 105,2017-003E,2026-07-20T02:04:16.941216,14.34218072,.00020613,86.3942,43.1087,81.7217,278.4213,0,U,41921,999,49985,.42183778E-4,.138E-5,0
IRIDIUM 104,2017-003F,2026-07-20T03:22:10.198848,14.34218028,.00019308,86.3936,74.7017,80.4258,279.7156,0,U,41922,999,49799,.41971522E-4,.137E-5,0
IRIDIUM 114,2017-003G,2026-07-20T03:31:18.224544,14.34218340,.0002031,86.3937,74.6823,85.5932,274.5496,0,U,41923,999,49797,.30666543E-4,.106E-5,0
IRIDIUM 108,2017-003H,2026-07-20T02:31:34.483008,14.34217539,.0002105,86.3931,42.9887,85.5232,274.6204,0,U,41924,999,49982,.892093E-6,.22E-6,0
IRIDIUM 112,2017-003J,2026-07-20T03:13:02.245728,14.34217902,.00021436,86.3933,74.5280,83.7506,276.3934,0,U,41925,999,49799,.35412449E-4,.119E-5,0
IRIDIUM 111,2017-003K,2026-07-20T02:54:46.225440,14.34217473,.00020551,86.3932,74.6044,86.2390,273.9041,0,U,41926,999,49797,-.852214E-5,-.4E-7,0
IRIDIUM 113,2017-039A,2026-07-20T05:46:51.167136,14.34217779,.00021247,86.3992,308.3647,92.8099,267.3340,0,U,42803,999,47592,.13727967E-4,.58E-6,0
IRIDIUM 123,2017-039B,2026-07-19T22:24:14.961600,14.34217203,.00020655,86.3992,339.9493,97.4603,262.6828,0,U,42804,999,47464,-.5620573E-5,.4E-7,0
IRIDIUM 120,2017-039C,2026-07-20T05:37:43.247712,14.34217600,.00023901,86.3981,308.1452,98.3216,261.8251,0,U,42805,999,47591,.7538848E-5,.41E-6,0
IRIDIUM 115,2017-039D,2026-07-20T06:12:34.476768,14.43279420,.00023195,86.4517,308.2686,99.3757,260.7706,0,U,42806,999,47903,.56455261E-4,.21E-5,0
IRIDIUM 118,2017-039E,2026-07-20T02:30:50.910624,14.34218547,.00022195,86.3999,339.8753,92.4539,267.6911,0,U,42807,999,47466,.41325753E-4,.136E-5,0
IRIDIUM 117,2017-039F,2026-07-19T21:56:50.889696,14.34217869,.00021615,86.3997,339.9122,94.5849,265.5594,0,U,42808,999,47466,.22431103E-4,.83E-6,0
IRIDIUM 126,2017-039G,2026-07-19T20:52:54.934464,14.34217875,.00020743,86.3998,339.9825,93.1561,266.9872,0,U,42809,999,47463,.1366651E-4,.58E-6,0
IRIDIUM 124,2017-039H,2026-07-20T04:37:13.413504,14.43275430,.00022597,86.4477,276.5592,96.8623,263.2835,0,U,42810,999,47987,.38428948E-4,.149E-5,0
IRIDIUM 128,2017-039J,2026-07-20T00:00:30.963168,14.34218112,.0002297,86.3971,11.4274,93.5480,266.5979,0,U,42811,999,47468,.38447497E-4,.127E-5,0
IRIDIUM 121,2017-039K,2026-07-19T21:20:18.975264,14.34217667,.0002249,86.3999,340.0025,93.2688,266.8765,0,U,42812,999,47451,.4696028E-5,.33E-6,0
IRIDIUM 133,2017-061A,2026-07-20T04:07:06.713472,14.34218439,.00022141,86.3972,11.4743,91.6278,268.5172,0,U,42955,999,45950,.41520107E-4,.136E-5,0
IRIDIUM 100,2017-061B,2026-07-19T22:56:34.824768,14.34218367,.00022195,86.3970,11.4823,90.6706,269.4744,0,U,42956,999,45947,.34381045E-4,.116E-5,0
IRIDIUM 122,2017-061C,2026-07-19T23:51:22.718880,14.34216904,.00021128,86.3971,11.4668,91.8626,268.2812,0,U,42957,999,45948,.36320842E-4,.121E-5,0
IRIDIUM 129,2017-061D,2026-07-20T05:29:18.960288,14.34216312,.00020758,86.3972,11.4360,86.0306,274.1127,0,U,42958,999,45953,.37750443E-4,.125E-5,0
IRIDIUM 119,2017-061E,2026-07-20T04:43:38.942400,14.34218002,.0002106,86.3973,11.4451,91.8418,268.3019,0,U,42959,999,45954,.39869806E-4,.131E-5,0
IRIDIUM 107,2017-061F,2026-07-20T05:11:02.765472,14.34217234,.00020596,86.3968,11.4590,97.6422,262.5007,0,U,42960,999,45955,-.354328E-5,.1E-6,0
IRIDIUM 132,2017-061G,2026-07-20T00:18:46.884960,14.34217840,.0002182,86.3972,11.5228,91.5396,268.6050,0,U,42961,999,45952,.35592734E-4,.119E-5,0
IRIDIUM 136,2017-061H,2026-07-19T23:23:58.812864,14.34218382,.00022488,86.3972,11.5456,90.6283,269.5170,0,U,42962,999,45953,.35476537E-4,.119E-5,0
IRIDIUM 139,2017-061J,2026-07-20T04:34:30.898560,14.34218423,.00022695,86.3974,11.5178,92.2787,267.8669,0,U,42963,999,45957,.41120869E-4,.135E-5,0
IRIDIUM 125,2017-061K,2026-07-20T04:16:14.759904,14.34218714,.00017234,86.3975,11.5848,98.2506,261.8886,0,U,42964,999,45958,.40286844E-4,.133E-5,0
